{"type": "FeatureCollection", "features": [ {"type": "Feature", "properties": {"norad_id": 30843, "name": "FENGYUN 1C DEB", "group": "fengyun-1c-debris", "lat": -52.243694629542375, "lon": 59.68256568324553, "alt_km": 822.231236005332, "timestamp": "2025-12-02T23:34:15.795399+00:00", "meta": {"OBJECT_NAME": "FENGYUN 1C DEB", "OBJECT_ID": "1999-025AWD", "EPOCH": "2025-12-02T03:58:54.934176", "MEAN_MOTION": 14.52441316, "ECCENTRICITY": 0.01487148, "INCLINATION": 98.8437, "RA_OF_ASC_NODE": 47.2253, "ARG_OF_PERICENTER": 151.4291, "MEAN_ANOMALY": 209.5156, "EPHEMERIS_TYPE": 0, "CLASSIFICATION_TYPE": "U", "NORAD_CAT_ID": 30843, "ELEMENT_SET_NO": 999, "REV_AT_EPOCH": 99171, "BSTAR": 0.0002601019, "MEAN_MOTION_DOT": 1.169e-05, "MEAN_MOTION_DDOT": 0}, "tle": {"line1": "1 30843U 99025AWD 25336.16591359  .00001169  00000+0  26010-3 0  9999", "line2": "2 30843  98.8437  47.2253 0148714 151.4291 209.5156 14.52441316991716"}}, "geometry": {"type": "Point", "coordinates": [59.68256568324553, -52.243694629542375]}}, {"type": "Feature", "properties": {"norad_id": 30845, "name": "FENGYUN 1C DEB", "group": "fengyun-1c-debris", "lat": 8.026883972049406, "lon": -22.47769517243323, "alt_km": 928.8039483480879, "timestamp": "2025-12-02T23:34:15.795410+00:00", "meta": {"OBJECT_NAME": "FENGYUN 1C DEB", "OBJECT_ID": "1999-025AWF", "EPOCH": "2025-12-02T12:04:36.073056", "MEAN_MOTION": 13.76844808, "ECCENTRICITY": 0.0192151, "INCLINATION": 98.3793, "RA_OF_ASC_NODE": 338.2909, "ARG_OF_PERICENTER": 298.3652, "MEAN_ANOMALY": 215.1904, "EPHEMERIS_TYPE": 0, "CLASSIFICATION_TYPE": "U", "NORAD_CAT_ID": 30845, "ELEMENT_SET_NO": 999, "REV_AT_EPOCH": 94102, "BSTAR": 0.00050676, "MEAN_MOTION_DOT": 5.33e-06, "MEAN_MOTION_DDOT": 0}, "tle": {"line1": "1 30845U 99025AWF 25336.50319529  .00000533  00000+0  50676-3 0  9995", "line2": "2 30845  98.3793 338.2909 0192151 298.3652 215.1904 13.76844808941026"}}, "geometry": {"type": "Point", "coordinates": [-22.47769517243323, 8.026883972049406]}}, {"type": "Feature", "properties": {"norad_id": 30846, "name": "FENGYUN 1C DEB", "group": "fengyun-1c-debris", "lat": 63.28905605495131, "lon": -11.643618302363826, "alt_km": 760.5207155879425, "timestamp": "2025-12-02T23:34:15.795420+00:00", "meta": {"OBJECT_NAME": "FENGYUN 1C DEB", "OBJECT_ID": "1999-025AWG", "EPOCH": "2025-12-02T09:59:29.146848", "MEAN_MOTION": 14.41455613, "ECCENTRICITY": 0.0054288, "INCLINATION": 99.3206, "RA_OF_ASC_NODE": 148.6902, "ARG_OF_PERICENTER": 6.7519, "MEAN_ANOMALY": 53.2487, "EPHEMERIS_TYPE": 0, "CLASSIFICATION_TYPE": "U", "NORAD_CAT_ID": 30846, "ELEMENT_SET_NO": 999, "REV_AT_EPOCH": 97781, "BSTAR": 0.00099617, "MEAN_MOTION_DOT": 3.238e-05, "MEAN_MOTION_DDOT": 0}, "tle": {"line1": "1 30846U 99025AWG 25336.41630957  .00003238  00000+0  99617-3 0  9990", "line2": "2 30846  99.3206 148.6902 0054288   6.7519  53.2487 14.41455613977812"}}, "geometry": {"type": "Point", "coordinates": [-11.643618302363826, 63.28905605495131]}}, {"type": "Feature", "properties": {"norad_id": 30847, "name": "FENGYUN 1C DEB", "group": "fengyun-1c-debris", "lat": -32.27865156615124, "lon": 142.88014562374212, "alt_km": 800.6321077919201, "timestamp": "2025-12-02T23:34:15.795430+00:00", "meta": {"OBJECT_NAME": "FENGYUN 1C DEB", "OBJECT_ID": "1999-025AWH", "EPOCH": "2025-12-01T03:55:28.449408", "MEAN_MOTION": 14.1688816, "ECCENTRICITY": 0.0065294, "INCLINATION": 98.7319, "RA_OF_ASC_NODE": 135.5241, "ARG_OF_PERICENTER": 1.6684, "MEAN_ANOMALY": 54.9234, "EPHEMERIS_TYPE": 0, "CLASSIFICATION_TYPE": "U", "NORAD_CAT_ID": 30847, "ELEMENT_SET_NO": 999, "REV_AT_EPOCH": 95891, "BSTAR": 0.002077, "MEAN_MOTION_DOT": 4.211e-05, "MEAN_MOTION_DDOT": 0}, "tle": {"line1": "1 30847U 99025AWH 25335.16352372  .00004211  00000+0  20770-2 0  9999", "line2": "2 30847  98.7319 135.5241 0065294   1.6684  54.9234 14.16888160958915"}}, "geometry": {"type": "Point", "coordinates": [142.88014562374212, -32.27865156615124]}}, {"type": "Feature", "properties": {"norad_id": 30848, "name": "FENGYUN 1C DEB", "group": "fengyun-1c-debris", "lat": 4.6157124810364065, "lon": -7.9138794646772865, "alt_km": 810.6802235786472, "timestamp": "2025-12-02T23:34:15.795441+00:00", "meta": {"OBJECT_NAME": "FENGYUN 1C DEB", "OBJECT_ID": "1999-025AWJ", "EPOCH": "2025-12-01T23:19:09.686496", "MEAN_MOTION": 14.3437093, "ECCENTRICITY": 0.00441753, "INCLINATION": 99.0609, "RA_OF_ASC_NODE": 170.2892, "ARG_OF_PERICENTER": 6.8445, "MEAN_ANOMALY": 353.3333, "EPHEMERIS_TYPE": 0, "CLASSIFICATION_TYPE": "U", "NORAD_CAT_ID": 30848, "ELEMENT_SET_NO": 999, "REV_AT_EPOCH": 97152, "BSTAR": 0.0013235369, "MEAN_MOTION_DOT": 3.717e-05, "MEAN_MOTION_DDOT": 0}, "tle": {"line1": "1 30848U 99025AWJ 25335.97163989  .00003717  00000+0  13235-2 0  9991", "line2": "2 30848  99.0609 170.2892 0044175   6.8445 353.3333 14.34370930971526"}}, "geometry": {"type": "Point", "coordinates": [-7.9138794646772865, 4.6157124810364065]}}, {"type": "Feature", "properties": {"norad_id": 30849, "name": "FENGYUN 1C DEB", "group": "fengyun-1c-debris", "lat": 54.36725363479712, "lon": 23.93833341589061, "alt_km": 791.5447079801606, "timestamp": "2025-12-02T23:34:15.795451+00:00", "meta": {"OBJECT_NAME": "FENGYUN 1C DEB", "OBJECT_ID": "1999-025AWK", "EPOCH": "2025-12-02T03:08:23.927136", "MEAN_MOTION": 14.18766074, "ECCENTRICITY": 0.00485266, "INCLINATION": 99.0498, "RA_OF_ASC_NODE": 35.9168, "ARG_OF_PERICENTER": 37.3041, "MEAN_ANOMALY": 352.3282, "EPHEMERIS_TYPE": 0, "CLASSIFICATION_TYPE": "U", "NORAD_CAT_ID": 30849, "ELEMENT_SET_NO": 999, "REV_AT_EPOCH": 96222, "BSTAR": 0.0014958704, "MEAN_MOTION_DOT": 3.099e-05, "MEAN_MOTION_DDOT": 0}, "tle": {"line1": "1 30849U 99025AWK 25336.13083249  .00003099  00000+0  14959-2 0  9998", "line2": "2 30849  99.0498  35.9168 0048526  37.3041 352.3282 14.18766074962220"}}, "geometry": {"type": "Point", "coordinates": [23.93833341589061, 54.36725363479712]}}, {"type": "Feature", "properties": {"norad_id": 30850, "name": "FENGYUN 1C DEB", "group": "fengyun-1c-debris", "lat": 74.2100959146102, "lon": 171.55829429199463, "alt_km": 899.9452816893563, "timestamp": "2025-12-02T23:34:15.795461+00:00", "meta": {"OBJECT_NAME": "FENGYUN 1C DEB", "OBJECT_ID": "1999-025AWL", "EPOCH": "2025-11-29T13:56:56.246784", "MEAN_MOTION": 14.16119722, "ECCENTRICITY": 0.01101947, "INCLINATION": 98.3938, "RA_OF_ASC_NODE": 199.8275, "ARG_OF_PERICENTER": 236.4308, "MEAN_ANOMALY": 152.4439, "EPHEMERIS_TYPE": 0, "CLASSIFICATION_TYPE": "U", "NORAD_CAT_ID": 30850, "ELEMENT_SET_NO": 999, "REV_AT_EPOCH": 95612, "BSTAR": 0.0022004811, "MEAN_MOTION_DOT": 4.575e-05, "MEAN_MOTION_DDOT": 0}, "tle": {"line1": "1 30850U 99025AWL 25333.58120656  .00004575  00000+0  22005-2 0  9991", "line2": "2 30850  98.3938 199.8275 0110194 236.4308 152.4439 14.16119722956126"}}, "geometry": {"type": "Point", "coordinates": [171.55829429199463, 74.2100959146102]}}, {"type": "Feature", "properties": {"norad_id": 30852, "name": "FENGYUN 1C DEB", "group": "fengyun-1c-debris", "lat": -81.2321216972676, "lon": 80.40192727666656, "alt_km": 825.9523985218702, "timestamp": "2025-12-02T23:34:15.795470+00:00", "meta": {"OBJECT_NAME": "FENGYUN 1C DEB", "OBJECT_ID": "1999-025AWN", "EPOCH": "2025-12-02T00:09:09.428832", "MEAN_MOTION": 14.10254914, "ECCENTRICITY": 0.00556227, "INCLINATION": 98.7345, "RA_OF_ASC_NODE": 354.0662, "ARG_OF_PERICENTER": 265.4593, "MEAN_ANOMALY": 94.0223, "EPHEMERIS_TYPE": 0, "CLASSIFICATION_TYPE": "U", "NORAD_CAT_ID": 30852, "ELEMENT_SET_NO": 999, "REV_AT_EPOCH": 96231, "BSTAR": 0.00054033067, "MEAN_MOTION_DOT": 9.28e-06, "MEAN_MOTION_DDOT": 0}, "tle": {"line1": "1 30852U 99025AWN 25336.00635913  .00000928  00000+0  54033-3 0  9995", "line2": "2 30852  98.7345 354.0662 0055622 265.4593  94.0223 14.10254914962318"}}, "geometry": {"type": "Point", "coordinates": [80.40192727666656, -81.2321216972676]}}, {"type": "Feature", "properties": {"norad_id": 30856, "name": "FENGYUN 1C DEB", "group": "fengyun-1c-debris", "lat": -71.37929036260442, "lon": -43.25435428381264, "alt_km": 685.6475666360011, "timestamp": "2025-12-02T23:34:15.795481+00:00", "meta": {"OBJECT_NAME": "FENGYUN 1C DEB", "OBJECT_ID": "1999-025AWS", "EPOCH": "2025-12-01T11:46:02.003808", "MEAN_MOTION": 14.45513052, "ECCENTRICITY": 0.00897903, "INCLINATION": 98.2032, "RA_OF_ASC_NODE": 160.6523, "ARG_OF_PERICENTER": 272.6852, "MEAN_ANOMALY": 141.9041, "EPHEMERIS_TYPE": 0, "CLASSIFICATION_TYPE": "U", "NORAD_CAT_ID": 30856, "ELEMENT_SET_NO": 999, "REV_AT_EPOCH": 96363, "BSTAR": 0.0058580829, "MEAN_MOTION_DOT": 0.00021729, "MEAN_MOTION_DDOT": 0}, "tle": {"line1": "1 30856U 99025AWS 25335.49030097  .00021729  00000+0  58581-2 0  9996", "line2": "2 30856  98.2032 160.6523 0089790 272.6852 141.9041 14.45513052963633"}}, "geometry": {"type": "Point", "coordinates": [-43.25435428381264, -71.37929036260442]}}, {"type": "Feature", "properties": {"norad_id": 30857, "name": "FENGYUN 1C DEB", "group": "fengyun-1c-debris", "lat": -74.76429210327393, "lon": 110.62444797486549, "alt_km": 717.5297713130731, "timestamp": "2025-12-02T23:34:15.795491+00:00", "meta": {"OBJECT_NAME": "FENGYUN 1C DEB", "OBJECT_ID": "1999-025AWT", "EPOCH": "2025-11-30T10:47:49.835040", "MEAN_MOTION": 14.5075264, "ECCENTRICITY": 0.0044105, "INCLINATION": 98.9754, "RA_OF_ASC_NODE": 323.3958, "ARG_OF_PERICENTER": 331.9164, "MEAN_ANOMALY": 27.965, "EPHEMERIS_TYPE": 0, "CLASSIFICATION_TYPE": "U", "NORAD_CAT_ID": 30857, "ELEMENT_SET_NO": 999, "REV_AT_EPOCH": 96545, "BSTAR": 0.0067744434, "MEAN_MOTION_DOT": 0.00027044, "MEAN_MOTION_DDOT": 0}, "tle": {"line1": "1 30857U 99025AWT 25334.44988235  .00027044  00000+0  67744-2 0  9994", "line2": "2 30857  98.9754 323.3958 0044105 331.9164  27.9650 14.50752640965453"}}, "geometry": {"type": "Point", "coordinates": [110.62444797486549, -74.76429210327393]}}]}